start=new Date('2022-02-10T00:00:00.000Z').valueOf();
sats=[{"REV_AT_EPOCH":"11542","INCLINATION":"53.0525","EPOCH":"2022-02-09T16:21:04.564512","OBJECT_ID":"2020-001Q","REF_FRAME":"TEME","DECAY_DATE":null,"SEMIMAJOR_AXIS":"6925.349","NORAD_CAT_ID":"44928","RA_OF_ASC_NODE":"191.0429","APOAPSIS":"548.246","MEAN_MOTION":"15.06399781","EPHEMERIS_TYPE":"0","PERIOD":"95.592","MEAN_ELEMENT_THEORY":"SGP4","MEAN_MOTION_DDOT":"0.0000000000000","TLE_LINE2":"2 44928  53.0525 191.0429 0001490  76.9618 283.1537 15.06399781115427","LAUNCH_DATE":"2020-01-07","FILE":"3296158","PERIAPSIS":"546.182","MEAN_MOTION_DOT":"0.00001029","RCS_SIZE":"LARGE","TIME_SYSTEM":"UTC","SITE":"AFETR","TLE_LINE1":"1 44928U 20001Q   22040.68130283  .00001029  00000-0  87958-4 0  9992","MEAN_ANOMALY":"283.1537","ELEMENT_SET_NO":"999","CENTER_NAME":"EARTH","BSTAR":"0.00008795800000","OBJECT_TYPE":"PAYLOAD","COUNTRY_CODE":"US","ARG_OF_PERICENTER":"76.9618","OBJECT_NAME":"STARLINK-1119","CLASSIFICATION_TYPE":"U","ECCENTRICITY":"0.00014900","GP_ID":"195646204"},{"GP_ID":"195638994","ECCENTRICITY":"0.00014750","OBJECT_NAME":"STARLINK-1121","CLASSIFICATION_TYPE":"U","OBJECT_TYPE":"PAYLOAD","BSTAR":"0.00021422000000","CENTER_NAME":"EARTH","ARG_OF_PERICENTER":"76.8431","COUNTRY_CODE":"US","MEAN_ANOMALY":"283.2723","TLE_LINE1":"1 44929U 20001R   22040.60021316  .00002911  00000-0  21422-3 0  9995","SITE":"AFETR","TIME_SYSTEM":"UTC","RCS_SIZE":"LARGE","ELEMENT_SET_NO":"999","TLE_LINE2":"2 44929  53.0534 191.3912 0001475  76.8431 283.2723 15.06403188115406","MEAN_MOTION_DDOT":"0.0000000000000","PERIOD":"95.592","MEAN_ELEMENT_THEORY":"SGP4","EPHEMERIS_TYPE":"0","MEAN_MOTION_DOT":"0.00002911","PERIAPSIS":"546.182","FILE":"3295989","LAUNCH_DATE":"2020-01-07","NORAD_CAT_ID":"44929","SEMIMAJOR_AXIS":"6925.339","RA_OF_ASC_NODE":"191.3912","MEAN_MOTION":"15.06403188","APOAPSIS":"548.225","DECAY_DATE":null,"EPOCH":"2022-02-09T14:24:18.417024","INCLINATION":"53.0534","REV_AT_EPOCH":"11540","REF_FRAME":"TEME","OBJECT_ID":"2020-001R"},{"ELEMENT_SET_NO":"999","TLE_LINE1":"1 44930U 20001S   22040.76608599  .00005759  00000-0  40512-3 0  9992","SITE":"AFETR","MEAN_ANOMALY":"287.2835","RCS_SIZE":"LARGE","TIME_SYSTEM":"UTC","ARG_OF_PERICENTER":"72.8316","COUNTRY_CODE":"US","BSTAR":"0.00040512000000","OBJECT_TYPE":"PAYLOAD","CENTER_NAME":"EARTH","ECCENTRICITY":"0.00014750","OBJECT_NAME":"STARLINK-1123","CLASSIFICATION_TYPE":"U","GP_ID":"195646651","OBJECT_ID":"2020-001S","REF_FRAME":"TEME","EPOCH":"2022-02-09T18:23:09.829536","REV_AT_EPOCH":"11543","INCLINATION":"53.0521","DECAY_DATE":null,"MEAN_MOTION":"15.06409506","APOAPSIS":"548.206","SEMIMAJOR_AXIS":"6925.319","NORAD_CAT_ID":"44930","RA_OF_ASC_NODE":"190.6544","PERIAPSIS":"546.163","MEAN_MOTION_DOT":"0.00005759","LAUNCH_DATE":"2020-01-07","FILE":"3296158","MEAN_MOTION_DDOT":"0.0000000000000","TLE_LINE2":"2 44930  53.0521 190.6544 0001475  72.8316 287.2835 15.06409506115436","EPHEMERIS_TYPE":"0","MEAN_ELEMENT_THEORY":"SGP4","PERIOD":"95.592"},{"GP_ID":"195637492","OBJECT_NAME":"STARLINK-1128","CLASSIFICATION_TYPE":"U","ECCENTRICITY":"0.00026550","CENTER_NAME":"EARTH","OBJECT_TYPE":"PAYLOAD","BSTAR":"0.00034702000000","COUNTRY_CODE":"US","ARG_OF_PERICENTER":"125.7855","TIME_SYSTEM":"UTC","RCS_SIZE":"LARGE","MEAN_ANOMALY":"234.3382","SITE":"AFETR","TLE_LINE1":"1 44931U 20001T   22040.58155482  .00005433  00000-0  34702-3 0  9994","ELEMENT_SET_NO":"999","MEAN_ELEMENT_THEORY":"SGP4","PERIOD":"95.357","EPHEMERIS_TYPE":"0","TLE_LINE2":"2 44931  53.0520 189.7707 0002655 125.7855 234.3382 15.10117840116177","MEAN_MOTION_DDOT":"0.0000000000000","FILE":"3295989","LAUNCH_DATE":"2020-01-07","MEAN_MOTION_DOT":"0.00005433","PERIAPSIS":"534.007","SEMIMAJOR_AXIS":"6913.977","NORAD_CAT_ID":"44931","RA_OF_ASC_NODE":"189.7707","APOAPSIS":"537.678","MEAN_MOTION":"15.10117840","DECAY_DATE":null,"INCLINATION":"53.0520","REV_AT_EPOCH":"11617","EPOCH":"2022-02-09T13:57:26.336448","REF_FRAME":"TEME","OBJECT_ID":"2020-001T"},{"TLE_LINE2":"2 44932  53.0537 191.0084 0001284  70.6886 289.4242 15.06393860116651","MEAN_MOTION_DDOT":"0.0000000000000","PERIOD":"95.593","MEAN_ELEMENT_THEORY":"SGP4","EPHEMERIS_TYPE":"0","MEAN_MOTION_DOT":"0.00000651","PERIAPSIS":"546.343","FILE":"3296159","LAUNCH_DATE":"2020-01-07","SEMIMAJOR_AXIS":"6925.367","NORAD_CAT_ID":"44932","RA_OF_ASC_NODE":"191.0084","MEAN_MOTION":"15.06393860","APOAPSIS":"548.122","DECAY_DATE":null,"EPOCH":"2022-02-09T16:31:41.329920","INCLINATION":"53.0537","REV_AT_EPOCH":"11665","REF_FRAME":"TEME","OBJECT_ID":"2020-001U","GP_ID":"195646218","ECCENTRICITY":"0.00012840","OBJECT_NAME":"STARLINK-1130","CLASSIFICATION_TYPE":"U","OBJECT_TYPE":"PAYLOAD","BSTAR":"0.00006260600000","CENTER_NAME":"EARTH","ARG_OF_PERICENTER":"70.6886","COUNTRY_CODE":"US","MEAN_ANOMALY":"289.4242","SITE":"AFETR","TLE_LINE1":"1 44932U 20001U   22040.68867280  .00000651  00000-0  62606-4 0  9994","TIME_SYSTEM":"UTC","RCS_SIZE":"LARGE","ELEMENT_SET_NO":"999"},{"GP_ID":"195646217","CLASSIFICATION_TYPE":"U","OBJECT_NAME":"STARLINK-1144","ECCENTRICITY":"0.00013100","COUNTRY_CODE":"US","ARG_OF_PERICENTER":"82.2707","CENTER_NAME":"EARTH","BSTAR":"0.00007870200000","OBJECT_TYPE":"PAYLOAD","ELEMENT_SET_NO":"999","RCS_SIZE":"LARGE","TIME_SYSTEM":"UTC","SITE":"AFETR","TLE_LINE1":"1 44933U 20001V   22040.71447316  .00000891  00000-0  78702-4 0  9993","MEAN_ANOMALY":"277.8431","LAUNCH_DATE":"2020-01-07","FILE":"3296159","PERIAPSIS":"546.302","MEAN_MOTION_DOT":"0.00000891","EPHEMERIS_TYPE":"0","PERIOD":"95.592","MEAN_ELEMENT_THEORY":"SGP4","MEAN_MOTION_DDOT":"0.0000000000000","TLE_LINE2":"2 44933  53.0544 190.8924 0001310  82.2707 277.8431 15.06401379116714","MEAN_MOTION":"15.06401379","APOAPSIS":"548.117","NORAD_CAT_ID":"44933","SEMIMAJOR_AXIS":"6925.344","RA_OF_ASC_NODE":"190.8924","DECAY_DATE":null,"REF_FRAME":"TEME","OBJECT_ID":"2020-001V","REV_AT_EPOCH":"11671","INCLINATION":"53.0544","EPOCH":"2022-02-09T17:08:50.481024"},{"GP_ID":"195637743","ECCENTRICITY":"0.00012090","OBJECT_NAME":"STARLINK-1071","CLASSIFICATION_TYPE":"U","ARG_OF_PERICENTER":"89.1731","COUNTRY_CODE":"US","BSTAR":"0.00014805000000","OBJECT_TYPE":"PAYLOAD","CENTER_NAME":"EARTH","ELEMENT_SET_NO":"999","SITE":"AFETR","TLE_LINE1":"1 44934U 20001W   22040.59468255  .00001925  00000-0  14805-3 0  9997","MEAN_ANOMALY":"270.9397","RCS_SIZE":"LARGE","TIME_SYSTEM":"UTC","PERIAPSIS":"546.373","MEAN_MOTION_DOT":"0.00001925","LAUNCH_DATE":"2020-01-07","FILE":"3295989","MEAN_MOTION_DDOT":"0.0000000000000","TLE_LINE2":"2 44934  53.0543 171.4274 0001209  89.1731 270.9397 15.06401201115681","EPHEMERIS_TYPE":"0","PERIOD":"95.592","MEAN_ELEMENT_THEORY":"SGP4","MEAN_MOTION":"15.06401201","APOAPSIS":"548.047","SEMIMAJOR_AXIS":"6925.345","NORAD_CAT_ID":"44934","RA_OF_ASC_NODE":"171.4274","DECAY_DATE":null,"OBJECT_ID":"2020-001W","REF_FRAME":"TEME","EPOCH":"2022-02-09T14:16:20.572320","REV_AT_EPOCH":"11568","INCLINATION":"53.0543"},{"REF_FRAME":"TEME","OBJECT_ID":"2020-001Z","EPOCH":"2022-02-09T13:44:30.085152","INCLINATION":"53.0526","REV_AT_EPOCH":"11568","DECAY_DATE":null,"MEAN_MOTION":"15.06407608","APOAPSIS":"548.085","SEMIMAJOR_AXIS":"6925.325","NORAD_CAT_ID":"44937","RA_OF_ASC_NODE":"171.5287","MEAN_MOTION_DOT":"0.00004289","PERIAPSIS":"546.295","FILE":"3295989","LAUNCH_DATE":"2020-01-07","TLE_LINE2":"2 44937  53.0526 171.5287 0001292  78.5629 281.5505 15.06407608115686","MEAN_MOTION_DDOT":"0.0000000000000","PERIOD":"95.592","MEAN_ELEMENT_THEORY":"SGP4","EPHEMERIS_TYPE":"0","ELEMENT_SET_NO":"999","MEAN_ANOMALY":"281.5505","TLE_LINE1":"1 44937U 20001Z   22040.57257043  .00004289  00000-0  30658-3 0  9999","SITE":"AFETR","TIME_SYSTEM":"UTC","RCS_SIZE":"LARGE","ARG_OF_PERICENTER":"78.5629","COUNTRY_CODE":"US","OBJECT_TYPE":"PAYLOAD","BSTAR":"0.00030658000000","CENTER_NAME":"EARTH","ECCENTRICITY":"0.00012920","CLASSIFICATION_TYPE":"U","OBJECT_NAME":"STARLINK-1079","GP_ID":"195637993"},{"DECAY_DATE":null,"REV_AT_EPOCH":"11568","INCLINATION":"53.0552","EPOCH":"2022-02-09T14:32:16.463040","REF_FRAME":"TEME","OBJECT_ID":"2020-001AA","EPHEMERIS_TYPE":"0","PERIOD":"95.593","MEAN_ELEMENT_THEORY":"SGP4","MEAN_MOTION_DDOT":"0.0000000000000","TLE_LINE2":"2 44938  53.0552 171.3769 0001669  66.5978 293.5187 15.06393898115685","LAUNCH_DATE":"2020-01-07","FILE":"3295989","PERIAPSIS":"546.076","MEAN_MOTION_DOT":"0.00001393","SEMIMAJOR_AXIS":"6925.367","RA_OF_ASC_NODE":"171.3769","NORAD_CAT_ID":"44938","APOAPSIS":"548.388","MEAN_MOTION":"15.06393898","CENTER_NAME":"EARTH","BSTAR":"0.00011240000000","OBJECT_TYPE":"PAYLOAD","COUNTRY_CODE":"US","ARG_OF_PERICENTER":"66.5978","RCS_SIZE":"LARGE","TIME_SYSTEM":"UTC","TLE_LINE1":"1 44938U 20001AA  22040.60574610  .00001393  00000-0  11240-3 0  9995","SITE":"AFETR","MEAN_ANOMALY":"293.5187","ELEMENT_SET_NO":"999","GP_ID":"195638244","OBJECT_NAME":"STARLINK-1082","CLASSIFICATION_TYPE":"U","ECCENTRICITY":"0.00016690"},{"EPOCH":"2022-02-09T14:42:52.592544","REV_AT_EPOCH":"11568","INCLINATION":"53.0540","REF_FRAME":"TEME","OBJECT_ID":"2020-001AB","DECAY_DATE":null,"SEMIMAJOR_AXIS":"6925.343","NORAD_CAT_ID":"44939","RA_OF_ASC_NODE":"171.3454","APOAPSIS":"548.220","MEAN_MOTION":"15.06401889","MEAN_MOTION_DDOT":"0.0000000000000","TLE_LINE2":"2 44939  53.0540 171.3454 0001462  73.6742 286.4408 15.06401889115680","EPHEMERIS_TYPE":"0","PERIOD":"95.592","MEAN_ELEMENT_THEORY":"SGP4","PERIAPSIS":"546.195","MEAN_MOTION_DOT":"0.00001373","LAUNCH_DATE":"2020-01-07","FILE":"3295989","TLE_LINE1":"1 44939U 20001AB  22040.61310871  .00001373  00000-0  11102-3 0  9999","SITE":"AFETR","MEAN_ANOMALY":"286.4408","RCS_SIZE":"LARGE","TIME_SYSTEM":"UTC","ELEMENT_SET_NO":"999","BSTAR":"0.00011102000000","OBJECT_TYPE":"PAYLOAD","CENTER_NAME":"EARTH","ARG_OF_PERICENTER":"73.6742","COUNTRY_CODE":"US","ECCENTRICITY":"0.00014620","OBJECT_NAME":"STARLINK-1083","CLASSIFICATION_TYPE":"U","GP_ID":"195638995"}];
